IRIDIUM 126             
1 42809U 17039G   25057.46688431  .00000674  00000+0  23370-3 0  9996
2 42809  86.4023 192.4249 0002246  99.9777 260.1672 14.34218965401766
IRIDIUM 124             
1 42810U 17039H   25057.44284163  .00000971  00000+0  28251-3 0  9993
2 42810  86.4508 129.2867 0002169  89.3982 270.7468 14.43283491406496
IRIDIUM 128             
1 42811U 17039J   25057.52739196 -.00000049  00000+0 -24561-4 0  9993
2 42811  86.3965 223.8777 0002055  83.5989 276.5441 14.34216982401807
IRIDIUM 121             
1 42812U 17039K   25057.62544822  .00000037  00000+0  60137-5 0  9990
2 42812  86.4028 192.3839 0001879  93.0403 267.1008 14.34215979401662
IRIDIUM 133             
1 42955U 17061A   25057.48933649  .00000055  00000+0  12512-4 0  9999
2 42955  86.3963 223.9991 0002182  89.9088 270.2358 14.34217898386597
IRIDIUM 100             
1 42956U 17061B   25057.48299317 -.00000115  00000+0 -48243-4 0  9996
2 42956  86.3964 223.9318 0002064  89.4938 270.6494 14.34216476386596
IRIDIUM 122             
1 42957U 17061C   25057.52104948  .00000043  00000+0  84552-5 0  9999
2 42957  86.3962 223.9145 0002367  93.2532 266.8935 14.34217826386601
IRIDIUM 129             
1 42958U 17061D   25057.54641894  .00000044  00000+0  85279-5 0  9996
2 42958  86.3962 223.9658 0001999 103.5534 256.5885 14.34217916386620
